IRIDIUM 136             
1 42962U 17061H   24148.05589429  .00000253  00000+0  83351-4 0  9992
2 42962  86.3964 339.1579 0002077  78.7839 281.3590 14.34220042347178
